QIANFAN-65              
1 62795U 25016L   26003.94976965  .00000202  00000+0  29477-3 0  9994
2 62795  88.9761 100.7650 0012158 277.4578  82.5192 13.50979848 50248
QIANFAN-66              
1 62796U 25016M   26003.90451856  .00000213  00000+0  31210-3 0  9998
2 62796  88.9781 100.7442 0013295 272.7328  87.2301 13.50984815 50282
QIANFAN-67              
1 62797U 25016N   26003.90870001  .00000211  00000+0  30908-3 0  9997
2 62797  88.9771 100.7671 0013215 280.5491  79.4171 13.50988950 50255
QIANFAN-68              
1 62798U 25016P   26003.90036613  .00000195  00000+0  28341-3 0  9990
2 62798  88.9775 100.8139 0013278 278.5878  81.3769 13.50980895 50238
QIANFAN-69              
1 62799U 25016Q   26003.91682048  .00000242  00000+0  35558-3 0  9992
2 62799  88.9753 100.6770 0014020 279.8516  80.1052 13.50981323 50276
QIANFAN-70              
1 62800U 25016R   26003.93338113  .00000214  00000+0  31316-3 0  9995
2 62800  88.9775 100.8185 0013709 268.9268  91.0312 13.50985095 50237
QIANFAN-71              
1 62801U 25016S   26003.92918662  .00000209  00000+0  30572-3 0  9995
2 62801  88.9769 100.7970 0013919 283.8590  76.1013 13.50984533 50237
QIANFAN-72              
1 62802U 25016T   26003.94563664  .00000204  00000+0  29788-3 0  9998
2 62802  88.9759 100.8065 0017177 291.8776  68.0549 13.50984311 50225
